      2.10          N: GNSS NAV DATA                        RINEX VERSION / TYPE
fic2rin                                 11/26/2024 00:59:01 PGM / RUN BY / DATE
                                                            END OF HEADER
7  24 11 25  1 59 44.0 -.183307565749D-04  .193267624127D-11  .000000000000D+00
     .540000000000D+02 -.218437500000D+02  .476198407004D-08 -.127222054875D+00
    -.100955367088D-05  .188583339332D-01  .974163413048D-05  .515358860779D+04
     .935840000000D+05 -.968575477600D-07  .190713068609D+01  .320374965668D-06
     .950072288930D+00  .191343750000D+03 -.209243505354D+01 -.838999233400D-08
    -.478591363823D-10  .100000000000D+01  .234200000000D+04  .000000000000D+00
     .240000000000D+01  .000000000000D+00 -.107102096081D-07  .540000000000D+02
     .864000000000D+05  .400000000000D+01
12 24 11 25  1 59 44.0 -.554267317057D-03 -.238742359215D-11  .000000000000D+00
     .230000000000D+02  .655625000000D+02  .472805408529D-08 -.836325096411D+00
     .354088842869D-05  .886076129973D-02  .751763582230D-05  .515378962898D+04
     .935840000000D+05 -.540167093277D-07  .302304516457D+01  .117346644402D-06
     .961657663850D+00  .243000000000D+03  .145737738969D+01 -.825891544555D-08
     .292155026572D-09  .100000000000D+01  .234200000000D+04  .000000000000D+00
     .240000000000D+01  .000000000000D+00 -.125728547573D-07  .230000000000D+02
     .867000000000D+05  .400000000000D+01
21 24 11 25  1 59 44.0  .966321676970D-04 -.909494701773D-12  .000000000000D+00
     .430000000000D+02 -.372500000000D+02  .441982696068D-08  .245800937677D+01
    -.157579779625D-05  .256254991982D-01  .869855284691D-05  .515364096069D+04
     .935840000000D+05  .596046447754D-07 -.132764095753D+01  .547617673874D-06
     .960755416439D+00  .208531250000D+03 -.488252052766D+00 -.788782855972D-08
    -.377872882779D-09  .100000000000D+01  .234200000000D+04  .000000000000D+00
     .240000000000D+01  .000000000000D+00 -.102445483208D-07  .430000000000D+02
     .870000000000D+05  .400000000000D+01
12 24 11 25  1 59 28.0 -.554267317057D-03 -.238742359215D-11  .000000000000D+00
     .970000000000D+02  .655625000000D+02  .472805408529D-08 -.838658800385D+00
     .354088842869D-05  .886076246388D-02  .751763582230D-05  .515378963280D+04
     .935680000000D+05 -.540167093277D-07  .302304528892D+01  .117346644402D-06
     .961657656536D+00  .243000000000D+03  .145737749794D+01 -.825891544555D-08
     .292155026572D-09  .100000000000D+01  .234200000000D+04  .000000000000D+00
     .240000000000D+01  .000000000000D+00 -.125728547573D-07  .970000000000D+02
     .904500000000D+05  .400000000000D+01
12 24 11 25  3 59 28.0 -.554284546524D-03 -.238742359215D-11  .000000000000D+00
     .170000000000D+03  .685937500000D+02  .456054710795D-08  .211460277701D+00
     .333786010742D-05  .886187783908D-02  .759586691856D-05  .515379172516D+04
     .100768000000D+06 -.141561031342D-06  .302298630260D+01  .204890966415D-07
     .961659613920D+00  .235062500000D+03  .145736887111D+01 -.823355724642D-08
     .206437170365D-09  .100000000000D+01  .234200000000D+04  .000000000000D+00
     .240000000000D+01  .000000000000D+00 -.125728547573D-07  .170000000000D+03
     .936000000000D+05  .400000000000D+01
21 24 11 25  3 59 44.0  .966251827776D-04 -.909494701773D-12  .000000000000D+00
     .440000000000D+02 -.267187500000D+02  .433839499728D-08 -.277498735348D+01
    -.108964741230D-05  .256274336716D-01  .935792922974D-05  .515363756180D+04
     .100784000000D+06 -.262632966042D-06 -.132769802596D+01  .268220901489D-06
     .960754535763D+00  .196031250000D+03 -.488239745237D+00 -.764460414273D-08
    -.170364239212D-09  .100000000000D+01  .234200000000D+04  .000000000000D+00
     .240000000000D+01  .000000000000D+00 -.102445483208D-07  .440000000000D+02
     .936000000000D+05  .400000000000D+01
2  24 11 25  4  0  0.0 -.306864734739D-03  .864019966684D-11  .000000000000D+00
     .300000000000D+01 -.278750000000D+02  .430410785480D-08 -.245037059787D+01
    -.115670263767D-05  .164266703650D-01  .856071710587D-05  .515368628120D+04
     .100800000000D+06  .391155481339D-07 -.131942292891D+01  .227242708206D-06
     .966514774237D+00  .212125000000D+03 -.109328385116D+01 -.772782189480D-08
    -.126076680171D-09  .100000000000D+01  .234200000000D+04  .000000000000D+00
     .240000000000D+01  .000000000000D+00 -.176951289177D-07  .300000000000D+01
     .936000000000D+05  .400000000000D+01
5  24 11 25  4  0  0.0 -.194038730115D-03 -.113686837722D-11  .000000000000D+00
     .830000000000D+02  .134375000000D+02  .416517349619D-08 -.226635726002D+01
     .756233930588D-06  .566637062002D-02  .787712633610D-05  .515370805359D+04
     .100800000000D+06  .521540641785D-07 -.235106203814D+00  .540167093277D-07
     .974273883995D+00  .235000000000D+03  .133511165591D+01 -.784425531615D-08
     .220723479733D-09  .100000000000D+01  .234200000000D+04  .000000000000D+00
     .240000000000D+01  .000000000000D+00 -.107102096081D-07  .830000000000D+02
     .936000000000D+05  .400000000000D+01
6  24 11 25  4  0  0.0 -.140974298120D-03 -.296722646453D-10  .000000000000D+00
     .770000000000D+02 -.385625000000D+02  .389051919860D-08  .178833691043D+01
    -.185146927834D-05  .330958713312D-02  .836513936520D-05  .515373801613D+04
     .100800000000D+06  .447034835815D-07 -.121701720190D+01 -.316649675369D-07
     .989263776499D+00  .230062500000D+03 -.763472453395D+00 -.772925052574D-08
    -.225723688012D-09  .100000000000D+01  .234200000000D+04  .000000000000D+00
     .240000000000D+01  .000000000000D+00  .372529029846D-08  .770000000000D+02
     .936000000000D+05  .400000000000D+01
4  24 11 25  4  0  0.0  .485212542117D-03  .636646291241D-11  .000000000000D+00
     .130000000000D+02 -.376250000000D+02  .460626329793D-08 -.289668071324D+01
    -.200048089027D-05  .315974885598D-02  .581890344620D-05  .515368381310D+04
     .100800000000D+06  .372529029846D-08  .894981965671D+00  .372529029846D-08
     .966070895633D+00  .270000000000D+03 -.299783999454D+01 -.813033866124D-08
    -.982183769039D-10  .100000000000D+01  .234200000000D+04  .000000000000D+00
     .240000000000D+01  .000000000000D+00 -.465661287308D-08  .269000000000D+03
     .936000000000D+05  .400000000000D+01
3  24 11 25  4  0  0.0  .608769711107D-03  .989075488178D-11  .000000000000D+00
     .184000000000D+03  .129375000000D+02  .401731019424D-08  .343563744958D+00
     .676140189171D-06  .565076898783D-02  .786595046520D-05  .515362258911D+04
     .100800000000D+06 -.279396772385D-07 -.181426916245D+00  .130385160446D-07
     .987400691808D+00  .240843750000D+03  .115665941827D+01 -.793568769610D-08
     .203222750758D-09  .100000000000D+01  .234200000000D+04  .000000000000D+00
     .340000000000D+01  .000000000000D+00  .139698386192D-08  .184000000000D+03
     .936000000000D+05  .400000000000D+01
15 24 11 25  4  0  0.0  .231841579080D-03  .454747350886D-11  .000000000000D+00
     .220000000000D+02 -.262812500000D+02  .515092884258D-08  .268585567260D+01
    -.137463212013D-05  .161617937265D-01  .461563467979D-05  .515372709656D+04
     .100800000000D+06  .160187482834D-06  .701513858491D+00 -.135973095894D-06
     .937113754732D+00  .274187500000D+03  .137926345250D+01 -.821034199370D-08
    -.671456540289D-10  .100000000000D+01  .234200000000D+04  .000000000000D+00
     .240000000000D+01  .000000000000D+00 -.102445483208D-07  .220000000000D+02
     .936000000000D+05  .400000000000D+01
31 24 11 25  4  0  0.0 -.221165828407D-03  .682121026330D-12  .000000000000D+00
     .600000000000D+01 -.116875000000D+02  .448304387963D-08 -.144817164559D+00
    -.447034835815D-06  .107260358054D-01  .104121863842D-04  .515359812355D+04
     .100800000000D+06  .707805156708D-07  .192935801908D+01  .169500708580D-06
     .954008843486D+00  .175437500000D+03  .775469474445D+00 -.814319633967D-08
    -.553594488004D-10  .100000000000D+01  .234200000000D+04  .000000000000D+00
     .240000000000D+01  .000000000000D+00 -.130385160446D-07  .600000000000D+01
     .936000000000D+05  .400000000000D+01
27 24 11 25  4  0  0.0 -.345972366631D-04  .227373675443D-12  .000000000000D+00
     .290000000000D+02  .968750000000D+00  .484020161383D-08 -.251637028161D+01
    -.201165676117D-06  .128884407459D-01  .470317900181D-05  .515368104553D+04
     .100800000000D+06  .156462192535D-06 -.229169227427D+01 -.171363353729D-06
     .959461870627D+00  .287593750000D+03  .800793408557D+00 -.819712715753D-08
    -.857178562071D-11  .100000000000D+01  .234200000000D+04  .000000000000D+00
     .240000000000D+01  .000000000000D+00  .186264514923D-08  .290000000000D+02
     .936000000000D+05  .400000000000D+01
24 24 11 25  4  0  0.0 -.478168483824D-03  .250111042988D-11  .000000000000D+00
     .150000000000D+02 -.331875000000D+02  .495199198463D-08  .180432671622D+01
    -.191107392311D-05  .163306907052D-01  .948086380959D-05  .515369740677D+04
     .100800000000D+06 -.249594449997D-06  .180682013427D+01 -.292435288429D-06
     .933779644470D+00  .185125000000D+03  .103314134178D+01 -.826141554969D-08
    -.166078346401D-09  .100000000000D+01  .234200000000D+04  .000000000000D+00
     .240000000000D+01  .000000000000D+00  .232830643654D-08  .150000000000D+02
     .936000000000D+05  .400000000000D+01
25 24 11 25  4  0  0.0  .498738139868D-03 -.341060513165D-12  .000000000000D+00
     .100000000000D+02  .663125000000D+02  .488341769966D-08  .132253792330D-01
     .340491533279D-05  .121135377558D-01  .770017504692D-05  .515370423126D+04
     .100800000000D+06 -.894069671631D-07  .293441982890D+01  .221654772758D-06
     .949701582563D+00  .231093750000D+03  .109878407496D+01 -.840142138149D-08
     .231081054025D-09  .100000000000D+01  .234200000000D+04  .000000000000D+00
     .240000000000D+01  .000000000000D+00  .558793544769D-08  .100000000000D+02
     .936000000000D+05  .400000000000D+01
